[
  {
    "COMMENT": "GENERATED VIA SPACETRACK.ORG API",
    "ORIGINATOR": "18 SPCS",
    "NORAD_CAT_ID": "41335",
    "OBJECT_NAME": "SENTINEL 3A",
    "OBJECT_TYPE": "PAYLOAD",
    "CLASSIFICATION_TYPE": "U",
    "INTLDES": "16011A",
    "EPOCH": "2023-06-14 20:12:59",
    "EPOCH_MICROSECONDS": "236128",
    "MEAN_MOTION": "14.26733522",
    "ECCENTRICITY": "0.0001323",
    "INCLINATION": "98.6214",
    "RA_OF_ASC_NODE": "232.9278",
    "ARG_OF_PERICENTER": "92.3625",
    "MEAN_ANOMALY": "267.7707",
    "EPHEMERIS_TYPE": "0",
    "ELEMENT_SET_NO": "999",
    "REV_AT_EPOCH": "38144",
    "BSTAR": "0.00007735",
    "MEAN_MOTION_DOT": "0.00000144",
    "MEAN_MOTION_DDOT": "0",
    "FILE": "3933215",
    "TLE_LINE0": "0 SENTINEL 3A",
    "TLE_LINE1": "1 41335U 16011A   23165.84235227  .00000144  00000-0  77350-4 0  9990",
    "TLE_LINE2": "2 41335  98.6214 232.9278 0001323  92.3625 267.7707 14.26733522381448",
    "OBJECT_ID": "2016-011A",
    "OBJECT_NUMBER": "41335",
    "SEMIMAJOR_AXIS": "7180.807",
    "PERIOD": "100.930",
    "APOGEE": "803.622",
    "PERIGEE": "801.722",
    "DECAYED": "0"
  },
  {
    "COMMENT": "GENERATED VIA SPACETRACK.ORG API",
    "ORIGINATOR": "18 SPCS",
    "NORAD_CAT_ID": "41335",
    "OBJECT_NAME": "SENTINEL 3A",
    "OBJECT_TYPE": "PAYLOAD",
    "CLASSIFICATION_TYPE": "U",
    "INTLDES": "16011A",
    "EPOCH": "2023-06-15 02:56:56",
    "EPOCH_MICROSECONDS": "178816",
    "MEAN_MOTION": "14.26733629",
    "ECCENTRICITY": "0.0001318",
    "INCLINATION": "98.6213",
    "RA_OF_ASC_NODE": "233.2041",
    "ARG_OF_PERICENTER": "91.8901",
    "MEAN_ANOMALY": "268.243",
    "EPHEMERIS_TYPE": "0",
    "ELEMENT_SET_NO": "999",
    "REV_AT_EPOCH": "38148",
    "BSTAR": "0.000077392",
    "MEAN_MOTION_DOT": "0.00000144",
    "MEAN_MOTION_DDOT": "0",
    "FILE": "3933247",
    "TLE_LINE0": "0 SENTINEL 3A",
    "TLE_LINE1": "1 41335U 16011A   23166.12287244  .00000144  00000-0  77392-4 0  9994",
    "TLE_LINE2": "2 41335  98.6213 233.2041 0001318  91.8901 268.2430 14.26733629381485",
    "OBJECT_ID": "2016-011A",
    "OBJECT_NUMBER": "41335",
    "SEMIMAJOR_AXIS": "7180.807",
    "PERIOD": "100.930",
    "APOGEE": "803.618",
    "PERIGEE": "801.725",
    "DECAYED": "0"
  },
  {
    "COMMENT": "GENERATED VIA SPACETRACK.ORG API",
    "ORIGINATOR": "18 SPCS",
    "NORAD_CAT_ID": "41335",
    "OBJECT_NAME": "SENTINEL 3A",
    "OBJECT_TYPE": "PAYLOAD",
    "CLASSIFICATION_TYPE": "U",
    "INTLDES": "16011A",
    "EPOCH": "2023-06-15 09:40:53",
    "EPOCH_MICROSECONDS": "122368",
    "MEAN_MOTION": "14.26733716",
    "ECCENTRICITY": "0.0001327",
    "INCLINATION": "98.6214",
    "RA_OF_ASC_NODE": "233.4805",
    "ARG_OF_PERICENTER": "91.6876",
    "MEAN_ANOMALY": "268.4456",
    "EPHEMERIS_TYPE": "0",
    "ELEMENT_SET_NO": "999",
    "REV_AT_EPOCH": "38152",
    "BSTAR": "0.000080758",
    "MEAN_MOTION_DOT": "0.00000152",
    "MEAN_MOTION_DDOT": "0",
    "FILE": "3933633",
    "TLE_LINE0": "0 SENTINEL 3A",
    "TLE_LINE1": "1 41335U 16011A   23166.40339262  .00000152  00000-0  80758-4 0  9992",
    "TLE_LINE2": "2 41335  98.6214 233.4805 0001327  91.6876 268.4456 14.26733716381527",
    "OBJECT_ID": "2016-011A",
    "OBJECT_NUMBER": "41335",
    "SEMIMAJOR_AXIS": "7180.807",
    "PERIOD": "100.930",
    "APOGEE": "803.624",
    "PERIGEE": "801.719",
    "DECAYED": "0"
  },
  {
    "COMMENT": "GENERATED VIA SPACETRACK.ORG API",
    "ORIGINATOR": "18 SPCS",
    "NORAD_CAT_ID": "41335",
    "OBJECT_NAME": "SENTINEL 3A",
    "OBJECT_TYPE": "PAYLOAD",
    "CLASSIFICATION_TYPE": "U",
    "INTLDES": "16011A",
    "EPOCH": "2023-06-15 13:02:51",
    "EPOCH_MICROSECONDS": "590688",
    "MEAN_MOTION": "14.26733809",
    "ECCENTRICITY": "0.0001327",
    "INCLINATION": "98.6214",
    "RA_OF_ASC_NODE": "233.6187",
    "ARG_OF_PERICENTER": "91.8405",
    "MEAN_ANOMALY": "268.2928",
    "EPHEMERIS_TYPE": "0",
    "ELEMENT_SET_NO": "999",
    "REV_AT_EPOCH": "38154",
    "BSTAR": "0.000084109",
    "MEAN_MOTION_DOT": "0.0000016",
    "MEAN_MOTION_DDOT": "0",
    "FILE": "3933820",
    "TLE_LINE0": "0 SENTINEL 3A",
    "TLE_LINE1": "1 41335U 16011A   23166.54365267  .00000160  00000-0  84109-4 0  9994",
    "TLE_LINE2": "2 41335  98.6214 233.6187 0001327  91.8405 268.2928 14.26733809381549",
    "OBJECT_ID": "2016-011A",
    "OBJECT_NUMBER": "41335",
    "SEMIMAJOR_AXIS": "7180.806",
    "PERIOD": "100.930",
    "APOGEE": "803.624",
    "PERIGEE": "801.718",
    "DECAYED": "0"
  },
  {
    "COMMENT": "GENERATED VIA SPACETRACK.ORG API",
    "ORIGINATOR": "18 SPCS",
    "NORAD_CAT_ID": "41335",
    "OBJECT_NAME": "SENTINEL 3A",
    "OBJECT_TYPE": "PAYLOAD",
    "CLASSIFICATION_TYPE": "U",
    "INTLDES": "16011A",
    "EPOCH": "2023-06-15 18:05:49",
    "EPOCH_MICROSECONDS": "299648",
    "MEAN_MOTION": "14.26733583",
    "ECCENTRICITY": "0.0001324",
    "INCLINATION": "98.6214",
    "RA_OF_ASC_NODE": "233.826",
    "ARG_OF_PERICENTER": "91.6516",
    "MEAN_ANOMALY": "268.4816",
    "EPHEMERIS_TYPE": "0",
    "ELEMENT_SET_NO": "999",
    "REV_AT_EPOCH": "38157",
    "BSTAR": "0.0000023154",
    "MEAN_MOTION_DOT": "-0.00000038",
    "MEAN_MOTION_DDOT": "0",
    "FILE": "3933868",
    "TLE_LINE0": "0 SENTINEL 3A",
    "TLE_LINE1": "1 41335U 16011A   23166.75404282 -.00000038  00000-0  23154-5 0  9997",
    "TLE_LINE2": "2 41335  98.6214 233.8260 0001324  91.6516 268.4816 14.26733583381571",
    "OBJECT_ID": "2016-011A",
    "OBJECT_NUMBER": "41335",
    "SEMIMAJOR_AXIS": "7180.807",
    "PERIOD": "100.930",
    "APOGEE": "803.623",
    "PERIGEE": "801.721",
    "DECAYED": "0"
  },
  {
    "COMMENT": "GENERATED VIA SPACETRACK.ORG API",
    "ORIGINATOR": "18 SPCS",
    "NORAD_CAT_ID": "41335",
    "OBJECT_NAME": "SENTINEL 3A",
    "OBJECT_TYPE": "PAYLOAD",
    "CLASSIFICATION_TYPE": "U",
    "INTLDES": "16011A",
    "EPOCH": "2023-06-15 18:05:49",
    "EPOCH_MICROSECONDS": "299648",
    "MEAN_MOTION": "14.26733583",
    "ECCENTRICITY": "0.0001324",
    "INCLINATION": "98.6214",
    "RA_OF_ASC_NODE": "233.826",
    "ARG_OF_PERICENTER": "91.6516",
    "MEAN_ANOMALY": "268.4816",
    "EPHEMERIS_TYPE": "0",
    "ELEMENT_SET_NO": "999",
    "REV_AT_EPOCH": "38157",
    "BSTAR": "0.0000023154",
    "MEAN_MOTION_DOT": "-0.00000038",
    "MEAN_MOTION_DDOT": "0",
    "FILE": "3934071",
    "TLE_LINE0": "0 SENTINEL 3A",
    "TLE_LINE1": "1 41335U 16011A   23166.75404282 -.00000038  00000-0  23154-5 0  9997",
    "TLE_LINE2": "2 41335  98.6214 233.8260 0001324  91.6516 268.4816 14.26733583381571",
    "OBJECT_ID": "2016-011A",
    "OBJECT_NUMBER": "41335",
    "SEMIMAJOR_AXIS": "7180.807",
    "PERIOD": "100.930",
    "APOGEE": "803.623",
    "PERIGEE": "801.721",
    "DECAYED": "0"
  },
  {
    "COMMENT": "GENERATED VIA SPACETRACK.ORG API",
    "ORIGINATOR": "18 SPCS",
    "NORAD_CAT_ID": "41335",
    "OBJECT_NAME": "SENTINEL 3A",
    "OBJECT_TYPE": "PAYLOAD",
    "CLASSIFICATION_TYPE": "U",
    "INTLDES": "16011A",
    "EPOCH": "2023-06-16 02:30:45",
    "EPOCH_MICROSECONDS": "470880",
    "MEAN_MOTION": "14.26733652",
    "ECCENTRICITY": "0.0001317",
    "INCLINATION": "98.6213",
    "RA_OF_ASC_NODE": "234.1715",
    "ARG_OF_PERICENTER": "91.522",
    "MEAN_ANOMALY": "268.6111",
    "EPHEMERIS_TYPE": "0",
    "ELEMENT_SET_NO": "999",
    "REV_AT_EPOCH": "38162",
    "BSTAR": "0.0000026177",
    "MEAN_MOTION_DOT": "-0.00000037",
    "MEAN_MOTION_DDOT": "0",
    "FILE": "3934117",
    "TLE_LINE0": "0 SENTINEL 3A",
    "TLE_LINE1": "1 41335U 16011A   23167.10469295 -.00000037  00000-0  26177-5 0  9999",
    "TLE_LINE2": "2 41335  98.6213 234.1715 0001317  91.5220 268.6111 14.26733652381625",
    "OBJECT_ID": "2016-011A",
    "OBJECT_NUMBER": "41335",
    "SEMIMAJOR_AXIS": "7180.807",
    "PERIOD": "100.930",
    "APOGEE": "803.617",
    "PERIGEE": "801.726",
    "DECAYED": "0"
  },
  {
    "COMMENT": "GENERATED VIA SPACETRACK.ORG API",
    "ORIGINATOR": "18 SPCS",
    "NORAD_CAT_ID": "41335",
    "OBJECT_NAME": "SENTINEL 3A",
    "OBJECT_TYPE": "PAYLOAD",
    "CLASSIFICATION_TYPE": "U",
    "INTLDES": "16011A",
    "EPOCH": "2023-06-16 10:55:41",
    "EPOCH_MICROSECONDS": "634336",
    "MEAN_MOTION": "14.2673376",
    "ECCENTRICITY": "0.0001312",
    "INCLINATION": "98.6213",
    "RA_OF_ASC_NODE": "234.517",
    "ARG_OF_PERICENTER": "91.5678",
    "MEAN_ANOMALY": "268.5652",
    "EPHEMERIS_TYPE": "0",
    "ELEMENT_SET_NO": "999",
    "REV_AT_EPOCH": "38167",
    "BSTAR": "0.0000027192",
    "MEAN_MOTION_DOT": "-0.00000037",
    "MEAN_MOTION_DDOT": "0",
    "FILE": "3934405",
    "TLE_LINE0": "0 SENTINEL 3A",
    "TLE_LINE1": "1 41335U 16011A   23167.45534299 -.00000037  00000-0  27192-5 0  9992",
    "TLE_LINE2": "2 41335  98.6213 234.5170 0001312  91.5678 268.5652 14.26733760381670",
    "OBJECT_ID": "2016-011A",
    "OBJECT_NUMBER": "41335",
    "SEMIMAJOR_AXIS": "7180.806",
    "PERIOD": "100.930",
    "APOGEE": "803.613",
    "PERIGEE": "801.729",
    "DECAYED": "0"
  }
]